1 39402U 13064Y   13346.75007741  .00020121  00000-0  87967-3 0  9996
2 39402 040.5085 118.0480 0001440 123.3603 236.7357 15.21587054  3151
1 39402U 13064Y   13348.25963178  .00020525  00000-0  89544-3 0  9999
2 39402 040.5079 109.2597 0001604 142.7500 217.3468 15.21650307  3383
1 39402U 13064Y   13349.70349225  .00021636  00000-0  94148-3 0  9991
2 39402 040.5075 100.8560 0001587 149.7593 210.3520 15.21717056  3607
1 39402U 13064Y   13350.68789833  .00022771  00000-0  98885-3 0  9996
2 39402 040.5070 095.1238 0001267 149.7109 210.3767 15.21766237  3752
1 39402U 13064Y   13352.52538603  .00022075  00000-0  95669-3 0  9992
2 39402 040.5072 084.4297 0002579 178.3141 181.7388 15.21845145  4039
1 39402U 13064Y   13354.49404341  .00019399  00000-0  84037-3 0  9993
2 39402 040.5076 072.9622 0002414 192.4319 167.6389 15.21913960  4337
1 39402U 13064Y   13355.60957028  .00019019  00000-0  82310-3 0  9993
2 39402 040.5082 066.4665 0002487 198.6203 161.4494 15.21955466  4504
1 39402U 13064Y   13357.18438257  .00018219  00000-0  78764-3 0  9995
2 39402 040.5078 057.2935 0002555 208.9971 151.0669 15.22010226  4742
1 39402U 13064Y   13357.57807991  .00017119  00000-0  74051-3 0  9996
2 39402 040.5079 055.0058 0003220 209.4629 150.5921 15.22018031  4805
1 39402U 13064Y   13358.36546259  .00015923  00000-0  68905-3 0  9993
2 39402 040.5075 050.4188 0002431 217.8892 142.1459 15.22038570  4928
1 39402U 13064Y   13359.34968236  .00014431  00000-0  62498-3 0  9999
2 39402 040.5077 044.6884 0002681 219.8830 140.1647 15.22061334  5077
1 39402U 13064Y   13360.39949779  .00013391  00000-0  58019-3 0  9995
2 39402 040.5085 038.5750 0002936 225.9992 134.0543 15.22085719  5238
1 39402U 13064Y   13361.51490248  .00013299  00000-0  57577-3 0  9997
2 39402 040.5089 032.0791 0003005 233.8137 126.2389 15.22115476  5407
1 39402U 13064Y   13363.02394624  .00012896  00000-0  55797-3 0  9990
2 39402 040.5094 023.2888 0003164 242.4094 117.6384 15.22153256  5638
1 39402U 13064Y   13364.07369725  .00011943  00000-0  51709-3 0  9991
2 39402 040.5102 017.1761 0003291 247.6616 112.3781 15.22174706  5791
1 39402U 13064Y   13365.18904016  .00011573  00000-0  50101-3 0  9996
2 39402 040.5098 010.6791 0003453 251.1437 108.9010 15.22199413  5964
1 39402U 13064Y   14001.36996384  .00012448  00000-0  53765-3 0  9994
2 39402 040.5085 003.7983 0003554 258.5738 101.4703 15.22232597  6142
1 39402U 13064Y   14002.35404809  .00013475  00000-0  58074-3 0  9999
2 39402 040.5085 358.0645 0003365 263.3827 096.6757 15.22263613  6299
1 39402U 13064Y   14003.33810931  .00014857  00000-0  63868-3 0  9997
2 39402 040.5092 352.3291 0003264 274.0733 085.9929 15.22298548  6448
1 39402U 13064Y   14004.32214348  .00016386  00000-0  70260-3 0  9990
2 39402 040.5085 346.5965 0003362 271.8646 088.1975 15.22336894  6599
1 39402U 13064Y   14005.37175347  .00017257  00000-0  73853-3 0  9990
2 39402 040.5082 340.4805 0003413 273.6680 086.3759 15.22376331  6755
1 39402U 13064Y   14006.81493169  .00017201  00000-0  73510-3 0  9994
2 39402 040.5086 332.0693 0003433 278.7061 081.3351 15.22426218  6979
1 39402U 13064Y   14008.06127740  .00016829  00000-0  71856-3 0  9998
2 39402 040.5081 324.8068 0003377 281.3415 078.6991 15.22466917  7160
1 39402U 13064Y   14009.30758636  .00017146  00000-0  73094-3 0  9999
2 39402 040.5091 317.5396 0003323 282.3543 077.6930 15.22511259  7351
1 39402U 13064Y   14010.75063572  .00017477  00000-0  74373-3 0  9996
2 39402 040.5092 309.1277 0003254 288.2238 071.8250 15.22562993  7572
1 39402U 13064Y   14012.12804864  .00016901  00000-0  71860-3 0  9995
2 39402 040.5095 301.1000 0003166 290.9923 069.0437 15.22607517  7785
1 39402U 13064Y   14013.17748384  .00016291  00000-0  69237-3 0  9992
2 39402 040.5090 294.9829 0003033 294.9475 065.1012 15.22639578  7943
1 39402U 13064Y   14015.01393601  .00015834  00000-0  67209-3 0  9994
2 39402 040.5088 284.2774 0003048 304.3866 055.6636 15.22696920  8229
1 39402U 13064Y   14016.06330584  .00015636  00000-0  66318-3 0  9991
2 39402 040.5089 278.1591 0003019 309.3942 050.6532 15.22729090  8389
1 39402U 13064Y   14017.11265519  .00014657  00000-0  62176-3 0  9993
2 39402 040.5084 272.0422 0002921 309.0789 050.9539 15.22756078  8541
1 39402U 13064Y   14018.09641233  .00013001  00000-0  55227-3 0  9993
2 39402 040.5085 266.3079 0002672 310.8010 049.2454 15.22775297  8693
1 39402U 13064Y   14019.01457093  .00011682  00000-0  49692-3 0  9997
2 39402 040.5086 260.9559 0002587 312.7142 047.3260 15.22791689  8832
1 39402U 13064Y   14020.06388562  .00010706  00000-0  45591-3 0  9998
2 39402 040.5076 254.8383 0002598 318.2035 041.8574 15.22811004  8990
1 39402U 13064Y   14021.83456340  .00010329  00000-0  43967-3 0  9990
2 39402 040.5077 244.5109 0002537 323.6626 036.4036 15.22846783  9268
1 39402U 13064Y   14023.99865248  .00012517  00000-0  52998-3 0  9995
2 39402 040.5087 231.8887 0002946 344.6055 015.4649 15.22906646  9592
1 39402U 13064Y   14025.57248218  .00013364  00000-0  56447-3 0  9997
2 39402 040.5087 222.7090 0002436 349.1250 010.9549 15.22951590  9832
1 39402U 13064Y   14026.81840169  .00012881  00000-0  54396-3 0  9992
2 39402 040.5079 215.4472 0001774 348.3296 011.7469 15.22981753 10028
1 39402U 13064Y   14027.86757565  .00012937  00000-0  54582-3 0  9994
2 39402 040.5074 209.3251 0001693 355.6705 004.4083 15.23009626 10185
1 39402U 13064Y   14029.50686913  .00013772  00000-0  57963-3 0  9999
2 39402 040.5054 199.7582 0001523 005.2322 354.8588 15.23057624 10438
1 39402U 13064Y   14030.49041365  .00014978  00000-0  62892-3 0  9991
2 39402 040.5053 194.0215 0001427 011.2090 348.8825 15.23092827 10587
1 39402U 13064Y   14031.60507345  .00016347  00000-0  68466-3 0  9995
2 39402 040.5051 187.5156 0001229 019.8325 340.2838 15.23135218 10752
1 39402U 13064Y   14032.71969814  .00016578  00000-0  69343-3 0  9992
2 39402 040.5053 181.0170 0001309 032.5314 327.5455 15.23173179 10928
1 39402U 13064Y   14033.76874247  .00015954  00000-0  66707-3 0  9991
2 39402 040.5064 174.8959 0001073 052.6274 307.4637 15.23204816 11081
1 39402U 13064Y   14035.40782113  .00016516  00000-0  68909-3 0  9995
2 39402 040.5065 165.3328 0000923 077.7465 282.3520 15.23261157 11331
1 39402U 13064Y   14035.73562417  .00017822  00000-0  74241-3 0  9991
2 39402 040.5078 163.4189 0000952 086.8751 273.2194 15.23278673 11382
1 39402U 13064Y   14037.50573464  .00018909  00000-0  78545-3 0  9990
2 39402 040.5073 153.0879 0000901 099.9643 260.1368 15.23348862 11653
1 39402U 13064Y   14038.68575745  .00019945  00000-0  82664-3 0  9992
2 39402 040.5067 146.2029 0000892 119.8905 240.2071 15.23400349 11838
1 39402U 13064Y   14039.60352644  .00021190  00000-0  87646-3 0  9996
2 39402 040.5070 140.8443 0001012 109.4034 250.7109 15.23444677 11970
1 39402U 13064Y   14040.65236383  .00022785  00000-0  94008-3 0  9995
2 39402 040.5068 134.7217 0000902 118.6595 241.4296 15.23498597 12132
1 39402U 13064Y   14041.50451953  .00023947  00000-0  98613-3 0  9999
2 39402 040.5066 129.7486 0001214 163.2540 196.8342 15.23543883 12263
1 39402U 13064Y   14042.61884308  .00024527  00000-0  10081-2 0  9993
2 39402 040.5070 123.2442 0001296 172.0528 188.0299 15.23600312 12437
1 39402U 13064Y   14043.60204244  .00023354  00000-0  95920-3 0  9991
2 39402 040.5076 117.5031 0001384 178.1610 181.9197 15.23641948 12585
1 39402U 13064Y   14044.38858014  .00022224  00000-0  91249-3 0  9992
2 39402 040.5079 112.9094 0001336 173.0665 186.9903 15.23672318 12706
1 39402U 13064Y   14045.37173812  .00020671  00000-0  84857-3 0  9999
2 39402 040.5085 107.1695 0001376 174.6627 185.4034 15.23707477 12855
1 39402U 13064Y   14046.35487311  .00018804  00000-0  77218-3 0  9998
2 39402 040.5082 101.4288 0001326 188.3740 171.6790 15.23737155 13000
1 39402U 13064Y   14047.33799024  .00017447  00000-0  71657-3 0  9997
2 39402 040.5083 095.6870 0001384 196.7609 163.2961 15.23766266 13151
1 39402U 13064Y   14048.51770509  .00016568  00000-0  68021-3 0  9999
2 39402 040.5076 088.7985 0001732 205.6822 154.3914 15.23802249 13338
1 39402U 13064Y   14050.09059929  .00017569  00000-0  71946-3 0  9993
2 39402 040.5080 079.6127 0002169 215.3860 144.6899 15.23860975 13575
1 39402U 13064Y   14051.33576437  .00017808  00000-0  72810-3 0  9996
2 39402 040.5078 072.3395 0002267 221.3303 138.7344 15.23906201 13760
1 39402U 13064Y   14051.46683225  .00018850  00000-0  76989-3 0  9993
2 39402 040.5072 071.5718 0001868 228.8483 131.2440 15.23917383 13781
1 39402U 13064Y   14052.38428538  .00020900  00000-0  85128-3 0  9993
2 39402 040.5075 066.2156 0002910 226.6805 133.4357 15.23964589 13921
1 39402U 13064Y   14053.10511437  .00022296  00000-0  90641-3 0  9991
2 39402 040.5076 062.0057 0002977 227.9669 132.1121 15.24002169 14037
1 39402U 13064Y   14054.08804245  .00023843  00000-0  96707-3 0  9999
2 39402 040.5074 056.2614 0002526 237.5698 122.4965 15.24054614 14184
1 39402U 13064Y   14055.33304557  .00023255  00000-0  94192-3 0  9992
2 39402 040.5073 048.9872 0002879 241.1018 118.9467 15.24110214 14372
1 39402U 13064Y   14056.38142980  .00024125  00000-0  97513-3 0  9995
2 39402 040.5078 042.8616 0002857 248.7145 111.3354 15.24164699 14532
1 39402U 13064Y   14057.29873590  .00025020  00000-0  10094-2 0  9997
2 39402 040.5076 037.5007 0002988 250.6564 109.4009 15.24213977 14671
1 39402U 13064Y   14058.34704584  .00026084  00000-0  10500-2 0  9993
2 39402 040.5080 031.3753 0002998 254.1967 105.8522 15.24272554 14837
1 39402U 13064Y   14059.19877026  .00026920  00000-0  10816-2 0  9998
2 39402 040.5083 026.3998 0003634 249.9929 110.0746 15.24322095 14969
1 39402U 13064Y   14060.24700247  .00031096  00000-0  12445-2 0  9996
2 39402 040.5077 020.2679 0002959 274.3608 085.7789 15.24404332 15125
1 39402U 13064Y   14060.90210390  .00032928  00000-0  13151-2 0  9994
2 39402 040.5076 016.4380 0002751 273.5416 086.5369 15.24453907 15224
1 39402U 13064Y   14061.22964184  .00034649  00000-0  13817-2 0  9998
2 39402 040.5075 014.5202 0003331 283.1075 076.9419 15.24485136 15271
